STARLINK-37263          
1 68544U 26070C   26115.79089329  .00318012  00000+0  15472-2 0  9999
2 68544  53.1574 148.2977 0002031  61.0785 299.0442 15.80997544  3707
STARLINK-37289          
1 68545U 26070D   26115.79239377  .00370794  00000+0  17946-2 0  9993
2 68545  53.1575 148.3084 0001366  64.1862 295.9302 15.80970552  3709
STARLINK-37290          
1 68546U 26070E   26115.79089335  .00205309  00000+0  10148-2 0  9997
2 68546  53.1578 148.2975 0001854  63.2753 296.8459 15.80966725  3702
STARLINK-37245          
1 68547U 26070F   26115.59972867  .00200255  00000+0  99216-3 0  9996
2 68547  53.1578 149.2392 0001792 106.4464 253.6756 15.80929852  3674
STARLINK-37145          
1 68548U 26070G   26115.79013452  .00210418  00000+0  10443-2 0  9991
2 68548  53.1582 148.2937 0001357  92.0733 268.0446 15.80863914  3706
STARLINK-36204          
1 68549U 26070H   26115.78863791  .00312632  00000+0  15261-2 0  9994
2 68549  53.1575 148.2831 0001668  97.5866 262.5346 15.80940536  3708
STARLINK-36304          
1 68550U 26070J   26115.91357243  .00220692  00000+0  10890-2 0  9998
2 68550  53.1571 147.6386 0000806 100.1643 259.9471 15.80958128  3728
STARLINK-37288          
1 68551U 26070K   26115.78638737  .00303829  00000+0  14822-2 0  9997
2 68551  53.1590 148.2631 0001725  59.0228 301.0964 15.80978450  3706
STARLINK-37295          
1 68552U 26070L   26115.78788812  .00312985  00000+0  15276-2 0  9995
2 68552  53.1578 148.2770 0001800  73.6767 286.4453 15.80942926  3709
STARLINK-37254          
1 68553U 26070M   26114.58296476 -.00022553  00000+0 -11037-3 0  9996
2 68553  53.1580 154.2719 0001624  15.6289 344.4784 15.80996946  3514
STARLINK-37255          
1 68554U 26070N   26115.59447086  .00347309  00000+0  16833-2 0  9999
2 68554  53.1576 149.2024 0000824 105.8691 254.2423 15.81001275  3671
STARLINK-37146          
1 68555U 26070P   26115.59597529  .00213835  00000+0  10540-2 0  9993
2 68555  53.1576 149.2122 0000728 106.9825 253.1277 15.81003303  3674
STARLINK-37144          
1 68556U 26070Q   26115.59297131  .00211011  00000+0  10419-2 0  9999
2 68556  53.1568 149.1829 0001682 146.5369 213.5760 15.80972583  3673
STARLINK-37210          
1 68557U 26070R   26115.59372703  .00257630  00000+0  12644-2 0  9998
2 68557  53.1578 149.1982 0001046  71.2010 288.9126 15.80972505  3672
STARLINK-37227          
1 68558U 26070S   26115.90832540  .00422770  00000+0  20286-2 0  9994
2 68558  53.1577 147.6042 0000728 117.1816 242.9281 15.81018943  3728
STARLINK-37294          
1 68559U 26070T   26115.59147534  .00369810  00000+0  17860-2 0  9991
2 68559  53.1580 149.1837 0001066  55.2189 304.8934 15.81019428  3679
