[{"OBJECT_NAME":"STARLINK-37263","OBJECT_ID":"2026-070C","EPOCH":"2026-04-25T18:58:53.180256","MEAN_MOTION":15.80997544,"ECCENTRICITY":0.00020317,"INCLINATION":53.1574,"RA_OF_ASC_NODE":148.2977,"ARG_OF_PERICENTER":61.0785,"MEAN_ANOMALY":299.0442,"EPHEMERIS_TYPE":0,"CLASSIFICATION_TYPE":"U","NORAD_CAT_ID":68544,"ELEMENT_SET_NO":999,"REV_AT_EPOCH":370,"BSTAR":0.0015472451,"MEAN_MOTION_DOT":0.00318012,"MEAN_MOTION_DDOT":0},{"OBJECT_NAME":"STARLINK-37289","OBJECT_ID":"2026-070D","EPOCH":"2026-04-25T19:01:02.821728","MEAN_MOTION":15.80970552,"ECCENTRICITY":0.00013665,"INCLINATION":53.1575,"RA_OF_ASC_NODE":148.3084,"ARG_OF_PERICENTER":64.1862,"MEAN_ANOMALY":295.9302,"EPHEMERIS_TYPE":0,"CLASSIFICATION_TYPE":"U","NORAD_CAT_ID":68545,"ELEMENT_SET_NO":999,"REV_AT_EPOCH":370,"BSTAR":0.0017945858,"MEAN_MOTION_DOT":0.00370794,"MEAN_MOTION_DDOT":0},{"OBJECT_NAME":"STARLINK-37290","OBJECT_ID":"2026-070E","EPOCH":"2026-04-25T18:58:53.185440","MEAN_MOTION":15.80966725,"ECCENTRICITY":0.00018544,"INCLINATION":53.1578,"RA_OF_ASC_NODE":148.2975,"ARG_OF_PERICENTER":63.2753,"MEAN_ANOMALY":296.8459,"EPHEMERIS_TYPE":0,"CLASSIFICATION_TYPE":"U","NORAD_CAT_ID":68546,"ELEMENT_SET_NO":999,"REV_AT_EPOCH":370,"BSTAR":0.0010147851,"MEAN_MOTION_DOT":0.00205309,"MEAN_MOTION_DDOT":0},{"OBJECT_NAME":"STARLINK-37245","OBJECT_ID":"2026-070F","EPOCH":"2026-04-25T14:23:36.557088","MEAN_MOTION":15.80929852,"ECCENTRICITY":0.00017921,"INCLINATION":53.1578,"RA_OF_ASC_NODE":149.2392,"ARG_OF_PERICENTER":106.4464,"MEAN_ANOMALY":253.6756,"EPHEMERIS_TYPE":0,"CLASSIFICATION_TYPE":"U","NORAD_CAT_ID":68547,"ELEMENT_SET_NO":999,"REV_AT_EPOCH":367,"BSTAR":0.00099215712,"MEAN_MOTION_DOT":0.00200255,"MEAN_MOTION_DDOT":0},{"OBJECT_NAME":"STARLINK-37145","OBJECT_ID":"2026-070G","EPOCH":"2026-04-25T18:57:47.622528","MEAN_MOTION":15.80863914,"ECCENTRICITY":0.00013571,"INCLINATION":53.1582,"RA_OF_ASC_NODE":148.2937,"ARG_OF_PERICENTER":92.0733,"MEAN_ANOMALY":268.0446,"EPHEMERIS_TYPE":0,"CLASSIFICATION_TYPE":"U","NORAD_CAT_ID":68548,"ELEMENT_SET_NO":999,"REV_AT_EPOCH":370,"BSTAR":0.0010442755,"MEAN_MOTION_DOT":0.00210418,"MEAN_MOTION_DDOT":0},{"OBJECT_NAME":"STARLINK-36204","OBJECT_ID":"2026-070H","EPOCH":"2026-04-25T18:55:38.315424","MEAN_MOTION":15.80940536,"ECCENTRICITY":0.00016686,"INCLINATION":53.1575,"RA_OF_ASC_NODE":148.2831,"ARG_OF_PERICENTER":97.5866,"MEAN_ANOMALY":262.5346,"EPHEMERIS_TYPE":0,"CLASSIFICATION_TYPE":"U","NORAD_CAT_ID":68549,"ELEMENT_SET_NO":999,"REV_AT_EPOCH":370,"BSTAR":0.0015260857,"MEAN_MOTION_DOT":0.00312632,"MEAN_MOTION_DDOT":0},{"OBJECT_NAME":"STARLINK-36304","OBJECT_ID":"2026-070J","EPOCH":"2026-04-25T21:55:32.657952","MEAN_MOTION":15.80958128,"ECCENTRICITY":8.06e-5,"INCLINATION":53.1571,"RA_OF_ASC_NODE":147.6386,"ARG_OF_PERICENTER":100.1643,"MEAN_ANOMALY":259.9471,"EPHEMERIS_TYPE":0,"CLASSIFICATION_TYPE":"U","NORAD_CAT_ID":68550,"ELEMENT_SET_NO":999,"REV_AT_EPOCH":372,"BSTAR":0.0010890479,"MEAN_MOTION_DOT":0.00220692,"MEAN_MOTION_DDOT":0},{"OBJECT_NAME":"STARLINK-37288","OBJECT_ID":"2026-070K","EPOCH":"2026-04-25T18:52:23.868768","MEAN_MOTION":15.8097845,"ECCENTRICITY":0.00017251,"INCLINATION":53.159,"RA_OF_ASC_NODE":148.2631,"ARG_OF_PERICENTER":59.0228,"MEAN_ANOMALY":301.0964,"EPHEMERIS_TYPE":0,"CLASSIFICATION_TYPE":"U","NORAD_CAT_ID":68551,"ELEMENT_SET_NO":999,"REV_AT_EPOCH":370,"BSTAR":0.0014821538,"MEAN_MOTION_DOT":0.00303829,"MEAN_MOTION_DDOT":0},{"OBJECT_NAME":"STARLINK-37295","OBJECT_ID":"2026-070L","EPOCH":"2026-04-25T18:54:33.533568","MEAN_MOTION":15.80942926,"ECCENTRICITY":0.00018001,"INCLINATION":53.1578,"RA_OF_ASC_NODE":148.277,"ARG_OF_PERICENTER":73.6767,"MEAN_ANOMALY":286.4453,"EPHEMERIS_TYPE":0,"CLASSIFICATION_TYPE":"U","NORAD_CAT_ID":68552,"ELEMENT_SET_NO":999,"REV_AT_EPOCH":370,"BSTAR":0.001527574,"MEAN_MOTION_DOT":0.00312985,"MEAN_MOTION_DDOT":0},{"OBJECT_NAME":"STARLINK-37254","OBJECT_ID":"2026-070M","EPOCH":"2026-04-24T13:59:28.155264","MEAN_MOTION":15.80996946,"ECCENTRICITY":0.00016247,"INCLINATION":53.158,"RA_OF_ASC_NODE":154.2719,"ARG_OF_PERICENTER":15.6289,"MEAN_ANOMALY":344.4784,"EPHEMERIS_TYPE":0,"CLASSIFICATION_TYPE":"U","NORAD_CAT_ID":68553,"ELEMENT_SET_NO":999,"REV_AT_EPOCH":351,"BSTAR":-0.00011036841,"MEAN_MOTION_DOT":-0.00022553,"MEAN_MOTION_DDOT":0},{"OBJECT_NAME":"STARLINK-37255","OBJECT_ID":"2026-070N","EPOCH":"2026-04-25T14:16:02.282304","MEAN_MOTION":15.81001275,"ECCENTRICITY":8.241e-5,"INCLINATION":53.1576,"RA_OF_ASC_NODE":149.2024,"ARG_OF_PERICENTER":105.8691,"MEAN_ANOMALY":254.2423,"EPHEMERIS_TYPE":0,"CLASSIFICATION_TYPE":"U","NORAD_CAT_ID":68554,"ELEMENT_SET_NO":999,"REV_AT_EPOCH":367,"BSTAR":0.0016833445,"MEAN_MOTION_DOT":0.00347309,"MEAN_MOTION_DDOT":0},{"OBJECT_NAME":"STARLINK-37146","OBJECT_ID":"2026-070P","EPOCH":"2026-04-25T14:18:12.265056","MEAN_MOTION":15.81003303,"ECCENTRICITY":7.288e-5,"INCLINATION":53.1576,"RA_OF_ASC_NODE":149.2122,"ARG_OF_PERICENTER":106.9825,"MEAN_ANOMALY":253.1277,"EPHEMERIS_TYPE":0,"CLASSIFICATION_TYPE":"U","NORAD_CAT_ID":68555,"ELEMENT_SET_NO":999,"REV_AT_EPOCH":367,"BSTAR":0.0010539688,"MEAN_MOTION_DOT":0.00213835,"MEAN_MOTION_DDOT":0},{"OBJECT_NAME":"STARLINK-37144","OBJECT_ID":"2026-070Q","EPOCH":"2026-04-25T14:13:52.721184","MEAN_MOTION":15.80972583,"ECCENTRICITY":0.00016825,"INCLINATION":53.1568,"RA_OF_ASC_NODE":149.1829,"ARG_OF_PERICENTER":146.5369,"MEAN_ANOMALY":213.576,"EPHEMERIS_TYPE":0,"CLASSIFICATION_TYPE":"U","NORAD_CAT_ID":68556,"ELEMENT_SET_NO":999,"REV_AT_EPOCH":367,"BSTAR":0.0010419079,"MEAN_MOTION_DOT":0.00211011,"MEAN_MOTION_DDOT":0},{"OBJECT_NAME":"STARLINK-37210","OBJECT_ID":"2026-070R","EPOCH":"2026-04-25T14:14:58.015392","MEAN_MOTION":15.80972505,"ECCENTRICITY":0.00010467,"INCLINATION":53.1578,"RA_OF_ASC_NODE":149.1982,"ARG_OF_PERICENTER":71.201,"MEAN_ANOMALY":288.9126,"EPHEMERIS_TYPE":0,"CLASSIFICATION_TYPE":"U","NORAD_CAT_ID":68557,"ELEMENT_SET_NO":999,"REV_AT_EPOCH":367,"BSTAR":0.0012644462,"MEAN_MOTION_DOT":0.0025763,"MEAN_MOTION_DDOT":0},{"OBJECT_NAME":"STARLINK-37227","OBJECT_ID":"2026-070S","EPOCH":"2026-04-25T21:47:59.314560","MEAN_MOTION":15.81018943,"ECCENTRICITY":7.286e-5,"INCLINATION":53.1577,"RA_OF_ASC_NODE":147.6042,"ARG_OF_PERICENTER":117.1816,"MEAN_ANOMALY":242.9281,"EPHEMERIS_TYPE":0,"CLASSIFICATION_TYPE":"U","NORAD_CAT_ID":68558,"ELEMENT_SET_NO":999,"REV_AT_EPOCH":372,"BSTAR":0.0020285921,"MEAN_MOTION_DOT":0.0042277,"MEAN_MOTION_DDOT":0},{"OBJECT_NAME":"STARLINK-37294","OBJECT_ID":"2026-070T","EPOCH":"2026-04-25T14:11:43.469376","MEAN_MOTION":15.81019428,"ECCENTRICITY":0.00010666,"INCLINATION":53.158,"RA_OF_ASC_NODE":149.1837,"ARG_OF_PERICENTER":55.2189,"MEAN_ANOMALY":304.8934,"EPHEMERIS_TYPE":0,"CLASSIFICATION_TYPE":"U","NORAD_CAT_ID":68559,"ELEMENT_SET_NO":999,"REV_AT_EPOCH":367,"BSTAR":0.0017859922,"MEAN_MOTION_DOT":0.0036981,"MEAN_MOTION_DDOT":0}]
